QIANFAN-172             
1 69389U 26124H   26177.75749610  .00000107  00000+0  43766-4 0  9999
2 69389  88.9984   0.9478 0003367 135.3796 224.7665 14.19639662  3174
QIANFAN-173             
1 69390U 26124J   26177.74918486  .00000109  00000+0  43991-4 0  9991
2 69390  88.9984   0.9466 0003588 126.8160 233.3360 14.20511002  3175
QIANFAN-174             
1 69391U 26124K   26177.74368461  .00000128  00000+0  52710-4 0  9994
2 69391  88.9984   0.9457 0003835 132.4424 227.7092 14.20879678  3172
QIANFAN-175             
1 69392U 26124L   26177.74025071  .00000116  00000+0  46661-4 0  9997
2 69392  88.9984   0.9452 0004463 145.6117 214.5364 14.21341069  3176
QIANFAN-176             
1 69393U 26124M   26177.66492916  .00000120  00000+0  47850-4 0  9991
2 69393  88.9984   0.9525 0003397 148.8381 211.3012 14.21842384  3161
QIANFAN-177             
1 69394U 26124N   26177.65721821  .00000112  00000+0  43669-4 0  9996
2 69394  88.9984   0.9513 0004451 126.4222 233.7380 14.22731770  3160
QIANFAN-178             
1 69395U 26124P   26177.73123810  .00000118  00000+0  46582-4 0  9993
2 69395  88.9983   0.9438 0003779 135.2181 224.9316 14.22275390  3173
QIANFAN-179             
1 69396U 26124Q   26177.65338006  .00000118  00000+0  45990-4 0  9992
2 69396  88.9983   0.9506 0003767 131.6057 228.5458 14.23098445  3160
QIANFAN-180             
1 69397U 26124R   26177.71983853  .00000124  00000+0  48241-4 0  9995
2 69397  88.9984   0.9422 0004072 141.3074 218.8410 14.23620130  3179
QIANFAN-181             
1 69398U 26124S   26177.71966642  .00000102  00000+0  44110-4 0  9990
2 69398  88.9984   0.9607 0002936 106.1810 253.9702 14.16650382  3166
QIANFAN-182             
1 69399U 26124T   26177.76708491  .00000108  00000+0  45246-4 0  9999
2 69399  88.9984   0.9493 0003199 125.8990 234.2497 14.18739698  3173
QIANFAN-183             
1 69401U 26125A   26177.73548875  .00000331  00000+0  15918-3 0  9999
2 69401  88.9953 279.3692 0015285 144.4451 215.7758 14.16465377  3053
QIANFAN-184             
1 69402U 26125B   26177.72737270  .00000354  00000+0  16929-3 0  9996
2 69402  88.9954 279.3682 0016177 138.8415 221.3997 14.16885436  3052
QIANFAN-185             
1 69403U 26125C   26177.73221446  .00000339  00000+0  16434-3 0  9995
2 69403  88.9955 279.3688 0017008 139.3844 220.8616 14.16090204  3059
QIANFAN-186             
1 69404U 26125D   26177.71930330  .00000365  00000+0  17285-3 0  9997
2 69404  88.9954 279.3670 0015471 140.1197 220.1131 14.17436308  3058
QIANFAN-187             
1 69405U 26125E   26177.71161244  .00000366  00000+0  17054-3 0  9993
2 69405  88.9954 279.3657 0015981 141.2106 219.0234 14.18346997  3058
QIANFAN-188             
1 69406U 26125F   26177.70198744  .00000366  00000+0  16688-3 0  9990
2 69406  88.9954 279.3641 0015941 144.6939 215.5310 14.19439219  3056
QIANFAN-189             
1 69407U 26125G   26177.70583479  .00000357  00000+0  16476-3 0  9999
2 69407  88.9954 279.3648 0015199 142.1127 218.1135 14.18758197  3053
QIANFAN-190             
1 69408U 26125H   26177.70171509  .00000361  00000+0  16552-3 0  9997
2 69408  88.9955 279.3643 0015974 143.7293 216.4983 14.19221279  3051
QIANFAN-191             
1 69409U 26125J   26177.69290354  .00000379  00000+0  17086-3 0  9998
2 69409  88.9954 279.3628 0015383 142.5673 217.6592 14.20092575  3053
QIANFAN-192             
1 69410U 26125K   26177.68841102  .00000384  00000+0  17200-3 0  9996
2 69410  88.9955 279.3623 0016240 142.9451 217.2864 14.20518555  3051
QIANFAN-193             
1 69411U 26125L   26177.75318458  .00000387  00000+0  17198-3 0  9997
2 69411  88.9954 279.3534 0016135 143.1241 217.1062 14.20961171  3061
QIANFAN-194             
1 69412U 26125M   26177.67882079  .00000392  00000+0  17291-3 0  9994
2 69412  88.9954 279.3607 0015409 146.8347 213.3813 14.21402871  3041
QIANFAN-195             
1 69413U 26125N   26177.74551238  .00000397  00000+0  17379-3 0  9995
2 69413  88.9954 279.3522 0016621 145.3821 214.8455 14.21800285  3067
QIANFAN-196             
1 69414U 26125P   26177.74112750  .00000396  00000+0  17147-3 0  9990
2 69414  88.9955 279.3515 0016733 145.8176 214.4097 14.22295419  3069
QIANFAN-197             
1 69415U 26125Q   26177.73775794  .00000389  00000+0  16702-3 0  9991
2 69415  88.9954 279.3510 0015014 142.8442 217.3791 14.22739839  3059
QIANFAN-198             
1 69416U 26125R   26177.74192744  .00000388  00000+0  16853-3 0  9997
2 69416  88.9954 279.3516 0015328 142.2722 217.9547 14.22066543  3060
QIANFAN-199             
1 69417U 26125S   26177.73128580  .00000401  00000+0  16948-3 0  9995
2 69417  88.9954 279.3499 0017041 143.3027 216.9336 14.23630079  3062
QIANFAN-200             
1 69418U 26125T   26177.69652512  .00000375  00000+0  17079-3 0  9994
2 69418  88.9954 279.3634 0016075 141.4975 218.7365 14.19640144  3051
