OBJECT_NAME,OBJECT_ID,EPOCH,MEAN_MOTION,ECCENTRICITY,INCLINATION,RA_OF_ASC_NODE,ARG_OF_PERICENTER,MEAN_ANOMALY,EPHEMERIS_TYPE,CLASSIFICATION_TYPE,NORAD_CAT_ID,ELEMENT_SET_NO,REV_AT_EPOCH,BSTAR,MEAN_MOTION_DOT,MEAN_MOTION_DDOT
QIANFAN-172,2026-124H,2026-06-26T18:10:47.663040,14.19639662,.0003367,88.9984,0.9478,135.3796,224.7665,0,U,69389,999,317,.43766E-4,.107E-5,0
QIANFAN-173,2026-124J,2026-06-26T17:58:49.571904,14.20511002,.0003588,88.9984,0.9466,126.8160,233.3360,0,U,69390,999,317,.43991E-4,.109E-5,0
QIANFAN-174,2026-124K,2026-06-26T17:50:54.350304,14.20879678,.0003835,88.9984,0.9457,132.4424,227.7092,0,U,69391,999,317,.5271E-4,.128E-5,0
QIANFAN-175,2026-124L,2026-06-26T17:45:57.661344,14.21341069,.0004463,88.9984,0.9452,145.6117,214.5364,0,U,69392,999,317,.46661E-4,.116E-5,0
QIANFAN-176,2026-124M,2026-06-26T15:57:29.879424,14.21842384,.0003397,88.9984,0.9525,148.8381,211.3012,0,U,69393,999,316,.4785E-4,.12E-5,0
QIANFAN-177,2026-124N,2026-06-26T15:46:23.653344,14.22731770,.0004451,88.9984,0.9513,126.4222,233.7380,0,U,69394,999,316,.43669E-4,.112E-5,0
QIANFAN-178,2026-124P,2026-06-26T17:32:58.971840,14.22275390,.0003779,88.9983,0.9438,135.2181,224.9316,0,U,69395,999,317,.46582E-4,.118E-5,0
QIANFAN-179,2026-124Q,2026-06-26T15:40:52.037184,14.23098445,.0003767,88.9983,0.9506,131.6057,228.5458,0,U,69396,999,316,.4599E-4,.118E-5,0
QIANFAN-180,2026-124R,2026-06-26T17:16:34.048992,14.23620130,.0004072,88.9984,0.9422,141.3074,218.8410,0,U,69397,999,317,.48241E-4,.124E-5,0
QIANFAN-181,2026-124S,2026-06-26T17:16:19.178688,14.16650382,.0002936,88.9984,0.9607,106.1810,253.9702,0,U,69398,999,316,.4411E-4,.102E-5,0
QIANFAN-182,2026-124T,2026-06-26T18:24:36.136224,14.18739698,.0003199,88.9984,0.9493,125.8990,234.2497,0,U,69399,999,317,.45246E-4,.108E-5,0
QIANFAN-183,2026-125A,2026-06-26T17:39:06.228000,14.16465377,.0015285,88.9953,279.3692,144.4451,215.7758,0,U,69401,999,305,.15918E-3,.331E-5,0
QIANFAN-184,2026-125B,2026-06-26T17:27:25.001280,14.16885436,.0016177,88.9954,279.3682,138.8415,221.3997,0,U,69402,999,305,.16929E-3,.354E-5,0
QIANFAN-185,2026-125C,2026-06-26T17:34:23.329344,14.16090204,.0017008,88.9955,279.3688,139.3844,220.8616,0,U,69403,999,305,.16434E-3,.339E-5,0
QIANFAN-186,2026-125D,2026-06-26T17:15:47.805120,14.17436308,.0015471,88.9954,279.3670,140.1197,220.1131,0,U,69404,999,305,.17285E-3,.365E-5,0
QIANFAN-187,2026-125E,2026-06-26T17:04:43.314816,14.18346997,.0015981,88.9954,279.3657,141.2106,219.0234,0,U,69405,999,305,.17054E-3,.366E-5,0
QIANFAN-188,2026-125F,2026-06-26T16:50:51.714816,14.19439219,.0015941,88.9954,279.3641,144.6939,215.5310,0,U,69406,999,305,.16688E-3,.366E-5,0
QIANFAN-189,2026-125G,2026-06-26T16:56:24.125856,14.18758197,.0015199,88.9954,279.3648,142.1127,218.1135,0,U,69407,999,305,.16476E-3,.357E-5,0
QIANFAN-190,2026-125H,2026-06-26T16:50:28.183776,14.19221279,.0015974,88.9955,279.3643,143.7293,216.4983,0,U,69408,999,305,.16552E-3,.361E-5,0
QIANFAN-191,2026-125J,2026-06-26T16:37:46.865856,14.20092575,.0015383,88.9954,279.3628,142.5673,217.6592,0,U,69409,999,305,.17086E-3,.379E-5,0
QIANFAN-192,2026-125K,2026-06-26T16:31:18.712128,14.20518555,.001624,88.9955,279.3623,142.9451,217.2864,0,U,69410,999,305,.172E-3,.384E-5,0
QIANFAN-193,2026-125L,2026-06-26T18:04:35.147712,14.20961171,.0016135,88.9954,279.3534,143.1241,217.1062,0,U,69411,999,306,.17198E-3,.387E-5,0
QIANFAN-194,2026-125M,2026-06-26T16:17:30.116256,14.21402871,.0015409,88.9954,279.3607,146.8347,213.3813,0,U,69412,999,304,.17291E-3,.392E-5,0
QIANFAN-195,2026-125N,2026-06-26T17:53:32.269632,14.21800285,.0016621,88.9954,279.3522,145.3821,214.8455,0,U,69413,999,306,.17379E-3,.397E-5,0
QIANFAN-196,2026-125P,2026-06-26T17:47:13.416000,14.22295419,.0016733,88.9955,279.3515,145.8176,214.4097,0,U,69414,999,306,.17147E-3,.396E-5,0
QIANFAN-197,2026-125Q,2026-06-26T17:42:22.286016,14.22739839,.0015014,88.9954,279.3510,142.8442,217.3791,0,U,69415,999,305,.16702E-3,.389E-5,0
QIANFAN-198,2026-125R,2026-06-26T17:48:22.530816,14.22066543,.0015328,88.9954,279.3516,142.2722,217.9547,0,U,69416,999,306,.16853E-3,.388E-5,0
QIANFAN-199,2026-125S,2026-06-26T17:33:03.093120,14.23630079,.0017041,88.9954,279.3499,143.3027,216.9336,0,U,69417,999,306,.16948E-3,.401E-5,0
QIANFAN-200,2026-125T,2026-06-26T16:42:59.770368,14.19640144,.0016075,88.9954,279.3634,141.4975,218.7365,0,U,69418,999,305,.17079E-3,.375E-5,0
